{"type": "FeatureCollection", "features": [ {"type": "Feature", "properties": {"norad_id": 40664, "name": "SKY MEXICO-1", "group": "intelsat", "lat": -0.016670894436414996, "lon": -144.25950263641812, "alt_km": 35779.714574118014, "timestamp": "2025-12-06T14:35:36.795278+00:00", "meta": {"OBJECT_NAME": "SKY MEXICO-1", "OBJECT_ID": "2015-026B", "EPOCH": "2025-12-06T06:26:31.088832", "MEAN_MOTION": 1.00269786, "ECCENTRICITY": 0.0002873, "INCLINATION": 0.0126, "RA_OF_ASC_NODE": 24.8156, "ARG_OF_PERICENTER": 246.1839, "MEAN_ANOMALY": 182.1735, "EPHEMERIS_TYPE": 0, "CLASSIFICATION_TYPE": "U", "NORAD_CAT_ID": 40664, "ELEMENT_SET_NO": 999, "REV_AT_EPOCH": 3852, "BSTAR": 0, "MEAN_MOTION_DOT": -2.26e-06, "MEAN_MOTION_DDOT": 0}, "tle": {"line1": "1 40664U 15026B   25340.26841538 -.00000226  00000+0  00000+0 0  9994", "line2": "2 40664   0.0126  24.8156 0002873 246.1839 182.1735  1.00269786 38524"}}, "geometry": {"type": "Point", "coordinates": [-144.25950263641812, -0.016670894436414996]}}, {"type": "Feature", "properties": {"norad_id": 40874, "name": "INTELSAT 34 (IS-34)", "group": "intelsat", "lat": -0.03753898118440036, "lon": -120.9583826940483, "alt_km": 35785.02865619329, "timestamp": "2025-12-06T14:35:36.795290+00:00", "meta": {"OBJECT_NAME": "INTELSAT 34 (IS-34)", "OBJECT_ID": "2015-039A", "EPOCH": "2025-12-05T20:16:49.698624", "MEAN_MOTION": 1.00271506, "ECCENTRICITY": 5.383e-05, "INCLINATION": 0.0129, "RA_OF_ASC_NODE": 325.8778, "ARG_OF_PERICENTER": 215.7789, "MEAN_ANOMALY": 141.944, "EPHEMERIS_TYPE": 0, "CLASSIFICATION_TYPE": "U", "NORAD_CAT_ID": 40874, "ELEMENT_SET_NO": 999, "REV_AT_EPOCH": 3768, "BSTAR": 0, "MEAN_MOTION_DOT": -2.76e-06, "MEAN_MOTION_DDOT": 0}, "tle": {"line1": "1 40874U 15039A   25339.84501966 -.00000276  00000+0  00000+0 0  9996", "line2": "2 40874   0.0129 325.8778 0000538 215.7789 141.9440  1.00271506 37681"}}, "geometry": {"type": "Point", "coordinates": [-120.9583826940483, -0.03753898118440036]}}, {"type": "Feature", "properties": {"norad_id": 41581, "name": "INTELSAT 31 (IS-31)", "group": "intelsat", "lat": -0.027582808920850403, "lon": -160.52976283281748, "alt_km": 35778.26158449173, "timestamp": "2025-12-06T14:35:36.795301+00:00", "meta": {"OBJECT_NAME": "INTELSAT 31 (IS-31)", "OBJECT_ID": "2016-035A", "EPOCH": "2025-12-06T00:08:38.725728", "MEAN_MOTION": 1.00270089, "ECCENTRICITY": 0.00020938, "INCLINATION": 0.0178, "RA_OF_ASC_NODE": 271.9623, "ARG_OF_PERICENTER": 306.8625, "MEAN_ANOMALY": 123.3333, "EPHEMERIS_TYPE": 0, "CLASSIFICATION_TYPE": "U", "NORAD_CAT_ID": 41581, "ELEMENT_SET_NO": 999, "REV_AT_EPOCH": 3474, "BSTAR": 0, "MEAN_MOTION_DOT": -1.42e-06, "MEAN_MOTION_DDOT": 0}, "tle": {"line1": "1 41581U 16035A   25340.00600377 -.00000142  00000+0  00000+0 0  9997", "line2": "2 41581   0.0178 271.9623 0002093 306.8625 123.3333  1.00270089 34744"}}, "geometry": {"type": "Point", "coordinates": [-160.52976283281748, -0.027582808920850403]}}, {"type": "Feature", "properties": {"norad_id": 41747, "name": "INTELSAT 36 (IS-36)", "group": "intelsat", "lat": 0.008412528595011055, "lon": 3.0817418028045203, "alt_km": 35778.973368065206, "timestamp": "2025-12-06T14:35:36.795313+00:00", "meta": {"OBJECT_NAME": "INTELSAT 36 (IS-36)", "OBJECT_ID": "2016-053A", "EPOCH": "2025-12-05T21:26:38.561568", "MEAN_MOTION": 1.00280112, "ECCENTRICITY": 0.00021281, "INCLINATION": 0.0114, "RA_OF_ASC_NODE": 359.9271, "ARG_OF_PERICENTER": 305.4208, "MEAN_ANOMALY": 159.7561, "EPHEMERIS_TYPE": 0, "CLASSIFICATION_TYPE": "U", "NORAD_CAT_ID": 41747, "ELEMENT_SET_NO": 999, "REV_AT_EPOCH": 3401, "BSTAR": 0, "MEAN_MOTION_DOT": -1.7e-07, "MEAN_MOTION_DDOT": 0}, "tle": {"line1": "1 41747U 16053A   25339.89350187 -.00000017  00000+0  00000+0 0  9998", "line2": "2 41747   0.0114 359.9271 0002128 305.4208 159.7561  1.00280112 34019"}}, "geometry": {"type": "Point", "coordinates": [3.0817418028045203, 0.008412528595011055]}}, {"type": "Feature", "properties": {"norad_id": 41945, "name": "INTELSAT 32E (IS-32E)", "group": "intelsat", "lat": -0.02039026921888515, "lon": -108.6459939635975, "alt_km": 35785.997866671285, "timestamp": "2025-12-06T14:35:36.795324+00:00", "meta": {"OBJECT_NAME": "INTELSAT 32E (IS-32E)", "OBJECT_ID": "2017-007B", "EPOCH": "2025-12-06T06:36:45.108576", "MEAN_MOTION": 1.00271058, "ECCENTRICITY": 3.086e-05, "INCLINATION": 0.0329, "RA_OF_ASC_NODE": 72.8908, "ARG_OF_PERICENTER": 253.9688, "MEAN_ANOMALY": 164.467, "EPHEMERIS_TYPE": 0, "CLASSIFICATION_TYPE": "U", "NORAD_CAT_ID": 41945, "ELEMENT_SET_NO": 999, "REV_AT_EPOCH": 3229, "BSTAR": 0, "MEAN_MOTION_DOT": -2.61e-06, "MEAN_MOTION_DDOT": 0}, "tle": {"line1": "1 41945U 17007B   25340.27552209 -.00000261  00000+0  00000+0 0  9992", "line2": "2 41945   0.0329  72.8908 0000308 253.9688 164.4670  1.00271058 32293"}}, "geometry": {"type": "Point", "coordinates": [-108.6459939635975, -0.02039026921888515]}}, {"type": "Feature", "properties": {"norad_id": 42818, "name": "INTELSAT 35E (IS-35E)", "group": "intelsat", "lat": -0.04107701081663145, "lon": -99.94806460394969, "alt_km": 35776.315572297586, "timestamp": "2025-12-06T14:35:36.795336+00:00", "meta": {"OBJECT_NAME": "INTELSAT 35E (IS-35E)", "OBJECT_ID": "2017-041A", "EPOCH": "2025-12-06T06:39:14.870016", "MEAN_MOTION": 1.00270151, "ECCENTRICITY": 0.0002421, "INCLINATION": 0.0163, "RA_OF_ASC_NODE": 347.903, "ARG_OF_PERICENTER": 272.0333, "MEAN_ANOMALY": 240.7117, "EPHEMERIS_TYPE": 0, "CLASSIFICATION_TYPE": "U", "NORAD_CAT_ID": 42818, "ELEMENT_SET_NO": 999, "REV_AT_EPOCH": 3088, "BSTAR": 0, "MEAN_MOTION_DOT": -2.3e-06, "MEAN_MOTION_DDOT": 0}, "tle": {"line1": "1 42818U 17041A   25340.27725544 -.00000230  00000+0  00000+0 0  9990", "line2": "2 42818   0.0163 347.9030 0002421 272.0333 240.7117  1.00270151 30888"}}, "geometry": {"type": "Point", "coordinates": [-99.94806460394969, -0.04107701081663145]}}, {"type": "Feature", "properties": {"norad_id": 42950, "name": "INTELSAT 37E (IS-37E)", "group": "intelsat", "lat": -0.034133850211625565, "lon": -83.4432249351553, "alt_km": 35772.919894868865, "timestamp": "2025-12-06T14:35:36.795348+00:00", "meta": {"OBJECT_NAME": "INTELSAT 37E (IS-37E)", "OBJECT_ID": "2017-059A", "EPOCH": "2025-12-06T06:43:51.928032", "MEAN_MOTION": 1.00270752, "ECCENTRICITY": 0.000349, "INCLINATION": 0.015, "RA_OF_ASC_NODE": 333.2584, "ARG_OF_PERICENTER": 278.8244, "MEAN_ANOMALY": 266.2103, "EPHEMERIS_TYPE": 0, "CLASSIFICATION_TYPE": "U", "NORAD_CAT_ID": 42950, "ELEMENT_SET_NO": 999, "REV_AT_EPOCH": 3013, "BSTAR": 0, "MEAN_MOTION_DOT": -1.33e-06, "MEAN_MOTION_DDOT": 0}, "tle": {"line1": "1 42950U 17059A   25340.28046213 -.00000133  00000+0  00000+0 0  9998", "line2": "2 42950   0.0150 333.2584 0003490 278.8244 266.2103  1.00270752 30138"}}, "geometry": {"type": "Point", "coordinates": [-83.4432249351553, -0.034133850211625565]}}, {"type": "Feature", "properties": {"norad_id": 43632, "name": "AZERSPACE 2 (IS-38)", "group": "intelsat", "lat": -0.0016580945088814137, "lon": -20.33159081085358, "alt_km": 35785.484583589394, "timestamp": "2025-12-06T14:35:36.795359+00:00", "meta": {"OBJECT_NAME": "AZERSPACE 2 (IS-38)", "OBJECT_ID": "2018-074A", "EPOCH": "2025-12-06T05:46:38.731584", "MEAN_MOTION": 1.0027024, "ECCENTRICITY": 0.00016364, "INCLINATION": 0.0015, "RA_OF_ASC_NODE": 351.9319, "ARG_OF_PERICENTER": 265.925, "MEAN_ANOMALY": 309.2023, "EPHEMERIS_TYPE": 0, "CLASSIFICATION_TYPE": "U", "NORAD_CAT_ID": 43632, "ELEMENT_SET_NO": 999, "REV_AT_EPOCH": 2651, "BSTAR": 0, "MEAN_MOTION_DOT": 1.45e-06, "MEAN_MOTION_DDOT": 0}, "tle": {"line1": "1 43632U 18074A   25340.24072606  .00000145  00000+0  00000+0 0  9997", "line2": "2 43632   0.0015 351.9319 0001636 265.9250 309.2023  1.00270240 26511"}}, "geometry": {"type": "Point", "coordinates": [-20.33159081085358, -0.0016580945088814137]}}, {"type": "Feature", "properties": {"norad_id": 43633, "name": "HORIZONS-3E", "group": "intelsat", "lat": 0.0013159296815067297, "lon": 103.55572861817757, "alt_km": 35791.8240716846, "timestamp": "2025-12-06T14:35:36.795371+00:00", "meta": {"OBJECT_NAME": "HORIZONS-3E", "OBJECT_ID": "2018-074B", "EPOCH": "2025-12-06T04:02:38.488128", "MEAN_MOTION": 1.00269385, "ECCENTRICITY": 0.00012044, "INCLINATION": 0.0412, "RA_OF_ASC_NODE": 188.1076, "ARG_OF_PERICENTER": 91.4759, "MEAN_ANOMALY": 25.3122, "EPHEMERIS_TYPE": 0, "CLASSIFICATION_TYPE": "U", "NORAD_CAT_ID": 43633, "ELEMENT_SET_NO": 999, "REV_AT_EPOCH": 2640, "BSTAR": 0, "MEAN_MOTION_DOT": -2.2e-07, "MEAN_MOTION_DDOT": 0}, "tle": {"line1": "1 43633U 18074B   25340.16850102 -.00000022  00000+0  00000+0 0  9999", "line2": "2 43633   0.0412 188.1076 0001204  91.4759  25.3122  1.00269385 26402"}}, "geometry": {"type": "Point", "coordinates": [103.55572861817757, 0.0013159296815067297]}}, {"type": "Feature", "properties": {"norad_id": 44333, "name": "AT&T T-16", "group": "intelsat", "lat": 0.005607033313902902, "lon": -166.3200341923011, "alt_km": 35783.54511170885, "timestamp": "2025-12-06T14:35:36.795382+00:00", "meta": {"OBJECT_NAME": "AT&T T-16", "OBJECT_ID": "2019-034A", "EPOCH": "2025-12-05T21:46:40.325088", "MEAN_MOTION": 1.00271318, "ECCENTRICITY": 6.937e-05, "INCLINATION": 0.0289, "RA_OF_ASC_NODE": 66.1436, "ARG_OF_PERICENTER": 104.688, "MEAN_ANOMALY": 129.9319, "EPHEMERIS_TYPE": 0, "CLASSIFICATION_TYPE": "U", "NORAD_CAT_ID": 44333, "ELEMENT_SET_NO": 999, "REV_AT_EPOCH": 2369, "BSTAR": 0, "MEAN_MOTION_DOT": -1.06e-06, "MEAN_MOTION_DDOT": 0}, "tle": {"line1": "1 44333U 19034A   25339.90741117 -.00000106  00000+0  00000+0 0  9992", "line2": "2 44333   0.0289  66.1436 0000693 104.6880 129.9319  1.00271318 23696"}}, "geometry": {"type": "Point", "coordinates": [-166.3200341923011, 0.005607033313902902]}}]}